0 COSMOS 2251 DEB
1 34978U 93036AFH 13282.42825182  .00009995  00000-0  22222-2 0  2188
2 34978 074.0327 060.0055 0055877 244.5052 190.4331 14.56108084234711
0 COSMOS 2251 DEB
1 34978U 93036AFH 13283.37994001  .00009494  00000-0  21107-2 0  2196
2 34978 074.0325 058.2003 0055910 242.5341 139.1142 14.56120036234854
0 COSMOS 2251 DEB
1 34978U 93036AFH 13285.80939936  .00007876  00000-0  17514-2 0  2214
2 34978 074.0324 053.5908 0055897 237.5333 274.3470 14.56152120235209
0 COSMOS 2251 DEB
1 34978U 93036AFH 13286.84201443  .00008142  00000-0  18098-2 0  2220
2 34978 074.0326 051.6315 0055884 235.4316 287.3864 14.56166851235359
0 COSMOS 2251 DEB
1 34978U 93036AFH 13288.12726391  .00013986  00000-0  30994-2 0  2239
2 34978 074.0329 049.1930 0055886 232.8478 184.8040 14.56191640235541
0 COSMOS 2251 DEB
1 34978U 93036AFH 13289.51409701  .00011458  00000-0  25400-2 0  2245
2 34978 074.0335 046.5619 0055828 229.9822 254.9562 14.56219877235742
0 COSMOS 2251 DEB
1 34978U 93036AFH 13290.74991764  .00012300  00000-0  27245-2 0  2254
2 34978 074.0337 044.2176 0055799 227.4894 253.5046 14.56242646235928
0 COSMOS 2251 DEB
1 34978U 93036AFH 13292.11302251  .00009578  00000-0  21228-2 0  2263
2 34978 074.0343 041.6315 0055791 224.7018 199.4794 14.56268428236128
0 COSMOS 2251 DEB
1 34978U 93036AFH 13293.34793275  .00010606  00000-0  23484-2 0  2270
2 34978 074.0340 039.2889 0055700 222.1617 193.5250 14.56293129236309
0 COSMOS 2251 DEB
1 34978U 93036AFH 13294.46075197  .00012068  00000-0  26698-2 0  2285
2 34978 074.0337 037.1773 0055638 219.8525 267.6192 14.56309674236463
0 COSMOS 2251 DEB
1 34978U 93036AFH 13295.69662306  .00011442  00000-0  25306-2 0  2296
2 34978 074.0336 034.8323 0055562 217.3018 266.9010 14.56332936236641
